{"type": "FeatureCollection", "features": [ {"type": "Feature", "properties": {"norad_id": 66827, "name": "STARLINK-35959", "group": "last-30-days", "lat": -18.69625834280971, "lon": 174.22644456114642, "alt_km": 404.52284417090596, "timestamp": "2025-12-18T23:35:47.782036+00:00", "meta": {"OBJECT_NAME": "STARLINK-35959", "OBJECT_ID": "2025-280G", "EPOCH": "2025-12-18T14:00:03.000384", "MEAN_MOTION": 15.57283247, "ECCENTRICITY": 0.00034851, "INCLINATION": 69.9995, "RA_OF_ASC_NODE": 182.4079, "ARG_OF_PERICENTER": 264.9396, "MEAN_ANOMALY": 355.6436, "EPHEMERIS_TYPE": 0, "CLASSIFICATION_TYPE": "U", "NORAD_CAT_ID": 66827, "ELEMENT_SET_NO": 999, "REV_AT_EPOCH": 383, "BSTAR": -0.031065401, "MEAN_MOTION_DOT": -0.01997887, "MEAN_MOTION_DDOT": 0}, "tle": {"line1": "1 66827U 25280G   25352.58336806 -.01997887  00000+0 -31065-1 0  9998", "line2": "2 66827  69.9995 182.4079 0003485 264.9396 355.6436 15.57283247  3838"}}, "geometry": {"type": "Point", "coordinates": [174.22644456114642, -18.69625834280971]}}, {"type": "Feature", "properties": {"norad_id": 66828, "name": "STARLINK-35982", "group": "last-30-days", "lat": -15.118611422339033, "lon": 175.65476348532403, "alt_km": 404.2206908832677, "timestamp": "2025-12-18T23:35:47.782046+00:00", "meta": {"OBJECT_NAME": "STARLINK-35982", "OBJECT_ID": "2025-280H", "EPOCH": "2025-12-18T14:00:03.000384", "MEAN_MOTION": 15.57279338, "ECCENTRICITY": 0.00035062, "INCLINATION": 69.9993, "RA_OF_ASC_NODE": 182.4033, "ARG_OF_PERICENTER": 267.4671, "MEAN_ANOMALY": 356.9503, "EPHEMERIS_TYPE": 0, "CLASSIFICATION_TYPE": "U", "NORAD_CAT_ID": 66828, "ELEMENT_SET_NO": 999, "REV_AT_EPOCH": 383, "BSTAR": -0.030968508, "MEAN_MOTION_DOT": -0.01992184, "MEAN_MOTION_DDOT": 0}, "tle": {"line1": "1 66828U 25280H   25352.58336806 -.01992184  00000+0 -30969-1 0  9996", "line2": "2 66828  69.9993 182.4033 0003506 267.4671 356.9503 15.57279338  3830"}}, "geometry": {"type": "Point", "coordinates": [175.65476348532403, -15.118611422339033]}}, {"type": "Feature", "properties": {"norad_id": 66829, "name": "STARLINK-36084", "group": "last-30-days", "lat": -16.90891060024576, "lon": 174.94691116902396, "alt_km": 404.41635658777886, "timestamp": "2025-12-18T23:35:47.782058+00:00", "meta": {"OBJECT_NAME": "STARLINK-36084", "OBJECT_ID": "2025-280J", "EPOCH": "2025-12-18T14:00:03.000384", "MEAN_MOTION": 15.57281972, "ECCENTRICITY": 0.0003461, "INCLINATION": 69.9994, "RA_OF_ASC_NODE": 182.4052, "ARG_OF_PERICENTER": 265.4485, "MEAN_ANOMALY": 357.0524, "EPHEMERIS_TYPE": 0, "CLASSIFICATION_TYPE": "U", "NORAD_CAT_ID": 66829, "ELEMENT_SET_NO": 999, "REV_AT_EPOCH": 367, "BSTAR": -0.031053353, "MEAN_MOTION_DOT": -0.01997102, "MEAN_MOTION_DDOT": 0}, "tle": {"line1": "1 66829U 25280J   25352.58336806 -.01997102  00000+0 -31053-1 0  9997", "line2": "2 66829  69.9994 182.4052 0003461 265.4485 357.0524 15.57281972  3678"}}, "geometry": {"type": "Point", "coordinates": [174.94691116902396, -16.90891060024576]}}, {"type": "Feature", "properties": {"norad_id": 66830, "name": "STARLINK-35881", "group": "last-30-days", "lat": -13.331963886322852, "lon": 176.3514196504762, "alt_km": 404.22631747786636, "timestamp": "2025-12-18T23:35:47.782069+00:00", "meta": {"OBJECT_NAME": "STARLINK-35881", "OBJECT_ID": "2025-280K", "EPOCH": "2025-12-18T14:00:03.000384", "MEAN_MOTION": 15.57306502, "ECCENTRICITY": 0.00038106, "INCLINATION": 70.008, "RA_OF_ASC_NODE": 182.4015, "ARG_OF_PERICENTER": 265.893, "MEAN_ANOMALY": 0.4337, "EPHEMERIS_TYPE": 0, "CLASSIFICATION_TYPE": "U", "NORAD_CAT_ID": 66830, "ELEMENT_SET_NO": 999, "REV_AT_EPOCH": 383, "BSTAR": -0.031937898, "MEAN_MOTION_DOT": -0.02088021, "MEAN_MOTION_DDOT": 0}, "tle": {"line1": "1 66830U 25280K   25352.58336806 -.02088021  00000+0 -31938-1 0  9993", "line2": "2 66830  70.0080 182.4015 0003810 265.8930   0.4337 15.57306502  3831"}}, "geometry": {"type": "Point", "coordinates": [176.3514196504762, -13.331963886322852]}}, {"type": "Feature", "properties": {"norad_id": 66831, "name": "STARLINK-35788", "group": "last-30-days", "lat": -11.537664571066989, "lon": 177.03762119795127, "alt_km": 404.16852478735746, "timestamp": "2025-12-18T23:35:47.782079+00:00", "meta": {"OBJECT_NAME": "STARLINK-35788", "OBJECT_ID": "2025-280L", "EPOCH": "2025-12-18T14:00:03.000384", "MEAN_MOTION": 15.57306682, "ECCENTRICITY": 0.00037091, "INCLINATION": 70.008, "RA_OF_ASC_NODE": 182.4004, "ARG_OF_PERICENTER": 264.6932, "MEAN_ANOMALY": 3.5461, "EPHEMERIS_TYPE": 0, "CLASSIFICATION_TYPE": "U", "NORAD_CAT_ID": 66831, "ELEMENT_SET_NO": 999, "REV_AT_EPOCH": 383, "BSTAR": -0.031831691, "MEAN_MOTION_DOT": -0.02081745, "MEAN_MOTION_DDOT": 0}, "tle": {"line1": "1 66831U 25280L   25352.58336806 -.02081745  00000+0 -31832-1 0  9993", "line2": "2 66831  70.0080 182.4004 0003709 264.6932   3.5461 15.57306682  3837"}}, "geometry": {"type": "Point", "coordinates": [177.03762119795127, -11.537664571066989]}}, {"type": "Feature", "properties": {"norad_id": 66832, "name": "STARLINK-35768", "group": "last-30-days", "lat": -9.740064956507405, "lon": 177.71343401791094, "alt_km": 403.97282787207314, "timestamp": "2025-12-18T23:35:47.782089+00:00", "meta": {"OBJECT_NAME": "STARLINK-35768", "OBJECT_ID": "2025-280M", "EPOCH": "2025-12-18T14:00:03.000384", "MEAN_MOTION": 15.57304583, "ECCENTRICITY": 0.00037676, "INCLINATION": 70.008, "RA_OF_ASC_NODE": 182.397, "ARG_OF_PERICENTER": 266.5445, "MEAN_ANOMALY": 3.6154, "EPHEMERIS_TYPE": 0, "CLASSIFICATION_TYPE": "U", "NORAD_CAT_ID": 66832, "ELEMENT_SET_NO": 999, "REV_AT_EPOCH": 383, "BSTAR": -0.031841736, "MEAN_MOTION_DOT": -0.02082236, "MEAN_MOTION_DDOT": 0}, "tle": {"line1": "1 66832U 25280M   25352.58336806 -.02082236  00000+0 -31842-1 0  9991", "line2": "2 66832  70.0080 182.3970 0003767 266.5445   3.6154 15.57304583  3831"}}, "geometry": {"type": "Point", "coordinates": [177.71343401791094, -9.740064956507405]}}, {"type": "Feature", "properties": {"norad_id": 66833, "name": "STARLINK-35858", "group": "last-30-days", "lat": -7.9407606619986275, "lon": 178.3838783101467, "alt_km": 403.8509568720219, "timestamp": "2025-12-18T23:35:47.782099+00:00", "meta": {"OBJECT_NAME": "STARLINK-35858", "OBJECT_ID": "2025-280N", "EPOCH": "2025-12-18T14:00:03.000384", "MEAN_MOTION": 15.57309159, "ECCENTRICITY": 0.00037498, "INCLINATION": 70.0079, "RA_OF_ASC_NODE": 182.3954, "ARG_OF_PERICENTER": 266.6892, "MEAN_ANOMALY": 5.3869, "EPHEMERIS_TYPE": 0, "CLASSIFICATION_TYPE": "U", "NORAD_CAT_ID": 66833, "ELEMENT_SET_NO": 999, "REV_AT_EPOCH": 383, "BSTAR": -0.031948312, "MEAN_MOTION_DOT": -0.02088762, "MEAN_MOTION_DDOT": 0}, "tle": {"line1": "1 66833U 25280N   25352.58336806 -.02088762  00000+0 -31948-1 0  9999", "line2": "2 66833  70.0079 182.3954 0003749 266.6892   5.3869 15.57309159  3835"}}, "geometry": {"type": "Point", "coordinates": [178.3838783101467, -7.9407606619986275]}}, {"type": "Feature", "properties": {"norad_id": 66834, "name": "STARLINK-35840", "group": "last-30-days", "lat": -6.141486188495652, "lon": 179.0464772525807, "alt_km": 403.7557679180891, "timestamp": "2025-12-18T23:35:47.782111+00:00", "meta": {"OBJECT_NAME": "STARLINK-35840", "OBJECT_ID": "2025-280P", "EPOCH": "2025-12-18T14:00:03.000384", "MEAN_MOTION": 15.57305766, "ECCENTRICITY": 0.00037422, "INCLINATION": 70.0079, "RA_OF_ASC_NODE": 182.3922, "ARG_OF_PERICENTER": 265.7177, "MEAN_ANOMALY": 8.2743, "EPHEMERIS_TYPE": 0, "CLASSIFICATION_TYPE": "U", "NORAD_CAT_ID": 66834, "ELEMENT_SET_NO": 999, "REV_AT_EPOCH": 383, "BSTAR": -0.03180728, "MEAN_MOTION_DOT": -0.02041313, "MEAN_MOTION_DDOT": 0}, "tle": {"line1": "1 66834U 25280P   25352.58336806 -.02041313  00000+0 -31807-1 0  9995", "line2": "2 66834  70.0079 182.3922 0003742 265.7177   8.2743 15.57305766  3833"}}, "geometry": {"type": "Point", "coordinates": [179.0464772525807, -6.141486188495652]}}, {"type": "Feature", "properties": {"norad_id": 66835, "name": "STARLINK-35890", "group": "last-30-days", "lat": -4.344144353161093, "lon": 179.7044842026634, "alt_km": 403.6326818761636, "timestamp": "2025-12-18T23:35:47.782120+00:00", "meta": {"OBJECT_NAME": "STARLINK-35890", "OBJECT_ID": "2025-280Q", "EPOCH": "2025-12-18T14:00:03.000384", "MEAN_MOTION": 15.57303752, "ECCENTRICITY": 0.0003542, "INCLINATION": 70.0079, "RA_OF_ASC_NODE": 182.3899, "ARG_OF_PERICENTER": 265.3808, "MEAN_ANOMALY": 10.5281, "EPHEMERIS_TYPE": 0, "CLASSIFICATION_TYPE": "U", "NORAD_CAT_ID": 66835, "ELEMENT_SET_NO": 999, "REV_AT_EPOCH": 383, "BSTAR": -0.031756162, "MEAN_MOTION_DOT": -0.02038125, "MEAN_MOTION_DDOT": 0}, "tle": {"line1": "1 66835U 25280Q   25352.58336806 -.02038125  00000+0 -31756-1 0  9996", "line2": "2 66835  70.0079 182.3899 0003542 265.3808  10.5281 15.57303752  3838"}}, "geometry": {"type": "Point", "coordinates": [179.7044842026634, -4.344144353161093]}}, {"type": "Feature", "properties": {"norad_id": 66836, "name": "STARLINK-35838", "group": "last-30-days", "lat": -2.540621788482802, "lon": -179.63901801525142, "alt_km": 403.4360896463104, "timestamp": "2025-12-18T23:35:47.782132+00:00", "meta": {"OBJECT_NAME": "STARLINK-35838", "OBJECT_ID": "2025-280R", "EPOCH": "2025-12-18T14:00:03.000384", "MEAN_MOTION": 15.57305626, "ECCENTRICITY": 0.00037359, "INCLINATION": 70.0078, "RA_OF_ASC_NODE": 182.3872, "ARG_OF_PERICENTER": 266.4519, "MEAN_ANOMALY": 11.3714, "EPHEMERIS_TYPE": 0, "CLASSIFICATION_TYPE": "U", "NORAD_CAT_ID": 66836, "ELEMENT_SET_NO": 999, "REV_AT_EPOCH": 383, "BSTAR": -0.031746334, "MEAN_MOTION_DOT": -0.02037881, "MEAN_MOTION_DDOT": 0}, "tle": {"line1": "1 66836U 25280R   25352.58336806 -.02037881  00000+0 -31746-1 0  9994", "line2": "2 66836  70.0078 182.3872 0003735 266.4519  11.3714 15.57305626  3836"}}, "geometry": {"type": "Point", "coordinates": [-179.63901801525142, -2.540621788482802]}}]}